{
  "norad_id": "68764",
  "name": "COSMOS 2614",
  "line1": "1 68764U 26083K   26171.45360188  .00001955  00000+0  13924-3 0  9993",
  "line2": "2 68764  97.7786 308.6946 0006587  19.4826 340.6651 15.05794034  9696",
  "fetched_at": "2026-06-22T01:53:05.380148+00:00"
}